IRIDIUM 171             
1 43929U 19002H   23247.00610066  .00000098  00000+0  27762-4 0  9990
2 43929  86.3941  58.8689 0001946  89.6199 270.5220 14.34217398243162
IRIDIUM 170             
1 43930U 19002J   23246.75654405  .00000416  00000+0  62094-4 0  9999
2 43930  86.6061  58.8357 0002382  88.5252 271.6238 14.72252890249564
IRIDIUM 167             
1 43931U 19002K   23246.72068453  .00000109  00000+0  31757-4 0  9990
2 43931  86.3932  58.8082 0001997  88.7974 271.3451 14.34216932243123
IRIDIUM 181             
1 56726U 23068S   23246.30469636  .00000451  00000+0  12728-3 0  9991
2 56726  86.8582  98.7918 0002632  54.4710 305.6737 14.43585474 15609
IRIDIUM 177             
1 56727U 23068T   23247.05346526  .00000391  00000+0  47943-4 0  9998
2 56727  86.1931  91.6886 0001946  89.7714 270.3729 14.80233449 15904
IRIDIUM 174             
1 56728U 23068U   23246.30441544  .00000258  00000+0  30477-4 0  9998
2 56728  86.1941  92.1252 0002402  91.0805 269.0691 14.80232686 15796
IRIDIUM 178             
1 56729U 23068V   23247.04219530  .00001388  00000+0  17915-3 0  9995
2 56729  86.5736  95.6364 0002324  93.2894 266.8594 14.80239918 15905
IRIDIUM 179             
1 56730U 23068W   23247.03679301  .00001432  00000+0  18501-3 0  9994
2 56730  86.6746  96.1582 0002193  91.7867 268.3605 14.80239690 15901
